{
  "type": "FeatureCollection",
  "features": [
    {
      "type": "Feature",
      "properties": {
        "norad_id": 31952,
        "name": "FENGYUN 1C DEB",
        "group": "fengyun-1c-debris",
        "lat": -81.02766923452027,
        "lon": -152.66109861921655,
        "alt_km": 641.1672300213777,
        "timestamp": "2025-12-22T16:55:17.748727+00:00",
        "meta_object_name": "FENGYUN 1C DEB",
        "meta_object_id": "1999-025CND",
        "meta_epoch": "2025-12-21T06:38:16.029024",
        "meta_mean_motion": 14.53528655,
        "meta_eccentricity": 0.0114099,
        "meta_inclination": 98.9556,
        "meta_ra_of_asc_node": 112.9598,
        "meta_arg_of_pericenter": 266.5142,
        "meta_mean_anomaly": 92.2996,
        "meta_ephemeris_type": 0,
        "meta_classification_type": "U",
        "meta_norad_cat_id": 31952,
        "meta_element_set_no": 999,
        "meta_rev_at_epoch": 97333,
        "meta_bstar": 0.00040334,
        "meta_mean_motion_dot": 1.775e-05,
        "meta_mean_motion_ddot": 0,
        "tle_line1": "1 31952U 99025CND 25355.27657441  .00001775  00000+0  40334-3 0  9997",
        "tle_line2": "2 31952  98.9556 112.9598 0114099 266.5142  92.2996 14.53528655973335"
      },
      "geometry": {
        "type": "Point",
        "coordinates": [
          -152.66109861921655,
          -81.02766923452027
        ]
      }
    },
    {
      "type": "Feature",
      "properties": {
        "norad_id": 31955,
        "name": "FENGYUN 1C DEB",
        "group": "fengyun-1c-debris",
        "lat": -33.82447712844165,
        "lon": -118.94280164668635,
        "alt_km": 716.9779705940855,
        "timestamp": "2025-12-22T16:55:17.748738+00:00",
        "meta_object_name": "FENGYUN 1C DEB",
        "meta_object_id": "1999-025CNG",
        "meta_epoch": "2025-12-21T21:41:07.179648",
        "meta_mean_motion": 14.64028697,
        "meta_eccentricity": 0.00435771,
        "meta_inclination": 99.2807,
        "meta_ra_of_asc_node": 233.8648,
        "meta_arg_of_pericenter": 152.6411,
        "meta_mean_anomaly": 271.1392,
        "meta_ephemeris_type": 0,
        "meta_classification_type": "U",
        "meta_norad_cat_id": 31955,
        "meta_element_set_no": 999,
        "meta_rev_at_epoch": 96691,
        "meta_bstar": 0.0014947189,
        "meta_mean_motion_dot": 7.894e-05,
        "meta_mean_motion_ddot": 0,
        "tle_line1": "1 31955U 99025CNG 25355.90355532  .00007894  00000+0  14947-2 0  9994",
        "tle_line2": "2 31955  99.2807 233.8648 0043577 152.6411 271.1392 14.64028697966913"
      },
      "geometry": {
        "type": "Point",
        "coordinates": [
          -118.94280164668635,
          -33.82447712844165
        ]
      }
    },
    {
      "type": "Feature",
      "properties": {
        "norad_id": 31959,
        "name": "FENGYUN 1C DEB",
        "group": "fengyun-1c-debris",
        "lat": 59.37867074029796,
        "lon": 62.413063116075016,
        "alt_km": 710.5948559707649,
        "timestamp": "2025-12-22T16:55:17.748748+00:00",
        "meta_object_name": "FENGYUN 1C DEB",
        "meta_object_id": "1999-025CNL",
        "meta_epoch": "2025-12-21T22:06:57.352032",
        "meta_mean_motion": 14.46896532,
        "meta_eccentricity": 0.00273534,
        "meta_inclination": 98.5099,
        "meta_ra_of_asc_node": 226.9733,
        "meta_arg_of_pericenter": 126.577,
        "meta_mean_anomaly": 233.7945,
        "meta_ephemeris_type": 0,
        "meta_classification_type": "U",
        "meta_norad_cat_id": 31959,
        "meta_element_set_no": 999,
        "meta_rev_at_epoch": 64486,
        "meta_bstar": 0.0023827795,
        "meta_mean_motion_dot": 8.652e-05,
        "meta_mean_motion_ddot": 0,
        "tle_line1": "1 31959U 99025CNL 25355.92149713  .00008652  00000+0  23828-2 0  9993",
        "tle_line2": "2 31959  98.5099 226.9733 0027353 126.5770 233.7945 14.46896532644868"
      },
      "geometry": {
        "type": "Point",
        "coordinates": [
          62.413063116075016,
          59.37867074029796
        ]
      }
    },
    {
      "type": "Feature",
      "properties": {
        "norad_id": 31964,
        "name": "FENGYUN 1C DEB",
        "group": "fengyun-1c-debris",
        "lat": -37.85835506191906,
        "lon": 127.6445063387824,
        "alt_km": 687.2556448145879,
        "timestamp": "2025-12-22T16:55:17.748759+00:00",
        "meta_object_name": "FENGYUN 1C DEB",
        "meta_object_id": "1999-025CNR",
        "meta_epoch": "2025-12-22T03:55:33.985920",
        "meta_mean_motion": 14.58683465,
        "meta_eccentricity": 0.00286964,
        "meta_inclination": 98.7026,
        "meta_ra_of_asc_node": 120.2398,
        "meta_arg_of_pericenter": 359.0436,
        "meta_mean_anomaly": 1.0702,
        "meta_ephemeris_type": 0,
        "meta_classification_type": "U",
        "meta_norad_cat_id": 31964,
        "meta_element_set_no": 999,
        "meta_rev_at_epoch": 67647,
        "meta_bstar": 0.0026585756,
        "meta_mean_motion_dot": 0.00012436,
        "meta_mean_motion_ddot": 0,
        "tle_line1": "1 31964U 99025CNR 25356.16358780  .00012436  00000+0  26586-2 0  9991",
        "tle_line2": "2 31964  98.7026 120.2398 0028696 359.0436   1.0702 14.58683465676473"
      },
      "geometry": {
        "type": "Point",
        "coordinates": [
          127.6445063387824,
          -37.85835506191906
        ]
      }
    },
    {
      "type": "Feature",
      "properties": {
        "norad_id": 31966,
        "name": "FENGYUN 1C DEB",
        "group": "fengyun-1c-debris",
        "lat": -78.88088704461997,
        "lon": -83.59467380947673,
        "alt_km": 618.5095080394767,
        "timestamp": "2025-12-22T16:55:17.748770+00:00",
        "meta_object_name": "FENGYUN 1C DEB",
        "meta_object_id": "1999-025CNT",
        "meta_epoch": "2025-12-22T04:16:07.424544",
        "meta_mean_motion": 14.67667095,
        "meta_eccentricity": 0.00861501,
        "meta_inclination": 99.0169,
        "meta_ra_of_asc_node": 149.721,
        "meta_arg_of_pericenter": 245.6023,
        "meta_mean_anomaly": 113.6171,
        "meta_ephemeris_type": 0,
        "meta_classification_type": "U",
        "meta_norad_cat_id": 31966,
        "meta_element_set_no": 999,
        "meta_rev_at_epoch": 65881,
        "meta_bstar": 0.0014697462,
        "meta_mean_motion_dot": 8.787e-05,
        "meta_mean_motion_ddot": 0,
        "tle_line1": "1 31966U 99025CNT 25356.17786371  .00008787  00000+0  14697-2 0  9999",
        "tle_line2": "2 31966  99.0169 149.7210 0086150 245.6023 113.6171 14.67667095658816"
      },
      "geometry": {
        "type": "Point",
        "coordinates": [
          -83.59467380947673,
          -78.88088704461997
        ]
      }
    },
    {
      "type": "Feature",
      "properties": {
        "norad_id": 31972,
        "name": "FENGYUN 1C DEB",
        "group": "fengyun-1c-debris",
        "lat": -48.86335764447901,
        "lon": 49.25029759718599,
        "alt_km": 841.679139495619,
        "timestamp": "2025-12-22T16:55:17.748780+00:00",
        "meta_object_name": "FENGYUN 1C DEB",
        "meta_object_id": "1999-025CNZ",
        "meta_epoch": "2025-12-22T02:03:55.063872",
        "meta_mean_motion": 14.07518261,
        "meta_eccentricity": 0.00765265,
        "meta_inclination": 99.2103,
        "meta_ra_of_asc_node": 37.9145,
        "meta_arg_of_pericenter": 5.9214,
        "meta_mean_anomaly": 50.28,
        "meta_ephemeris_type": 0,
        "meta_classification_type": "U",
        "meta_norad_cat_id": 31972,
        "meta_element_set_no": 999,
        "meta_rev_at_epoch": 95092,
        "meta_bstar": 0.00013990636,
        "meta_mean_motion_dot": 1.96e-06,
        "meta_mean_motion_ddot": 0,
        "tle_line1": "1 31972U 99025CNZ 25356.08605398  .00000196  00000+0  13991-3 0  9998",
        "tle_line2": "2 31972  99.2103  37.9145 0076526   5.9214  50.2800 14.07518261950929"
      },
      "geometry": {
        "type": "Point",
        "coordinates": [
          49.25029759718599,
          -48.86335764447901
        ]
      }
    },
    {
      "type": "Feature",
      "properties": {
        "norad_id": 31974,
        "name": "FENGYUN 1C DEB",
        "group": "fengyun-1c-debris",
        "lat": 48.86108047759529,
        "lon": -162.83281052975843,
        "alt_km": 829.1467690269965,
        "timestamp": "2025-12-22T16:55:17.748791+00:00",
        "meta_object_name": "FENGYUN 1C DEB",
        "meta_object_id": "1999-025CPB",
        "meta_epoch": "2025-12-21T18:28:16.954752",
        "meta_mean_motion": 14.29620732,
        "meta_eccentricity": 0.00713784,
        "meta_inclination": 98.3788,
        "meta_ra_of_asc_node": 6.554,
        "meta_arg_of_pericenter": 275.8649,
        "meta_mean_anomaly": 83.4401,
        "meta_ephemeris_type": 0,
        "meta_classification_type": "U",
        "meta_norad_cat_id": 31974,
        "meta_element_set_no": 999,
        "meta_rev_at_epoch": 69551,
        "meta_bstar": 0.0018711419,
        "meta_mean_motion_dot": 4.885e-05,
        "meta_mean_motion_ddot": 0,
        "tle_line1": "1 31974U 99025CPB 25355.76964068  .00004885  00000+0  18711-2 0  9999",
        "tle_line2": "2 31974  98.3788   6.5540 0071378 275.8649  83.4401 14.29620732695518"
      },
      "geometry": {
        "type": "Point",
        "coordinates": [
          -162.83281052975843,
          48.86108047759529
        ]
      }
    }
  ]
}